[{"OBJECT_NAME":"SITRO-AIS 8 (ANOKHIN)","OBJECT_ID":"2023-091AD","EPOCH":"2026-03-09T23:44:40.058592","MEAN_MOTION":15.29359179,"ECCENTRICITY":0.0012509,"INCLINATION":97.5169,"RA_OF_ASC_NODE":133.2823,"ARG_OF_PERICENTER":92.0171,"MEAN_ANOMALY":268.2501,"EPHEMERIS_TYPE":0,"CLASSIFICATION_TYPE":"U","NORAD_CAT_ID":57193,"ELEMENT_SET_NO":999,"REV_AT_EPOCH":14927,"BSTAR":0.00064982524,"MEAN_MOTION_DOT":0.00018494,"MEAN_MOTION_DDOT":0},{"OBJECT_NAME":"STARLINK-30858","OBJECT_ID":"2023-177H","EPOCH":"2026-03-09T22:00:01.999584","MEAN_MOTION":15.26719835,"ECCENTRICITY":0.00011136,"INCLINATION":43.0008,"RA_OF_ASC_NODE":348.945,"ARG_OF_PERICENTER":244.8707,"MEAN_ANOMALY":221.2979,"EPHEMERIS_TYPE":0,"CLASSIFICATION_TYPE":"U","NORAD_CAT_ID":58358,"ELEMENT_SET_NO":999,"REV_AT_EPOCH":573,"BSTAR":-0.00019841655,"MEAN_MOTION_DOT":-5.575e-5,"MEAN_MOTION_DDOT":0}]
